STARLINK-11582 [DTC]    
1 62985U 25031E   26177.74484701  .00153597  00000+0  11789-2 0  9996
2 62985  42.9999  64.1348 0001939 214.6930 145.3811 15.70832669 79890
STARLINK-11571 [DTC]    
1 62986U 25031F   26177.39506814  .00186906  00000+0  14221-2 0  9992
2 62986  43.0010  65.7977 0002323 262.8231  97.2373 15.70930151 79847
STARLINK-11539 [DTC]    
1 62987U 25031G   26177.73954051  .00184518  00000+0  14106-2 0  9990
2 62987  42.9996  64.0936 0002525 272.2599  87.7979 15.70824551 79899
STARLINK-11542 [DTC]    
1 62988U 25031H   26177.97794345  .00264000  00000+0  19861-2 0  9993
2 62988  43.0017  62.4340 0002067 265.8732  94.1899 15.70960931 79903
STARLINK-11573 [DTC]    
1 62989U 25031J   26177.75546658  .00149893  00000+0  11462-2 0  9993
2 62989  43.0002  64.2227 0001946 251.8817 108.1839 15.70933099 79866
STARLINK-11572 [DTC]    
1 62990U 25031K   26177.91668981 -.00043646  00000+0 -33812-3 0  9992
2 62990  43.0009  62.8920 0001801 258.8136  79.2035 15.70860561  5880
STARLINK-11583 [DTC]    
1 62991U 25031L   26177.95152948  .00272045  00000+0  20557-2 0  9994
2 62991  43.0017  63.1153 0001256 271.3287  88.7436 15.70831688 79938
STARLINK-11570 [DTC]    
1 62992U 25031M   26177.95683365  .00127414  00000+0  97968-3 0  9997
2 62992  43.0026  63.1556 0001646 273.3362  86.7317 15.70879476 79916
STARLINK-11576 [DTC]    
1 62993U 25031N   26176.73281099  .00179231  00000+0  13685-2 0  9998
2 62993  43.0007  70.3098 0001404 264.2215  95.8493 15.70872447 79721
STARLINK-32899          
1 62994U 25031P   26177.90378504  .00013617  00000+0  50340-3 0  9992
2 62994  43.0001 246.9408 0000775 287.6613  72.4154 15.27583188 77796
STARLINK-32819          
1 62995U 25031Q   26177.54344404  .00014214  00000+0  52509-3 0  9998
2 62995  42.9980 248.5307 0001651 272.5693  87.4970 15.27577441 77744
STARLINK-32703          
1 62996U 25031R   26177.89864056  .00020459  00000+0  75066-3 0  9998
2 62996  42.9997 246.9015 0002012 265.6852  94.3770 15.27591602 77798
STARLINK-32881          
1 62997U 25031S   26177.59854882  .00022955  00000+0  84091-3 0  9993
2 62997  43.0027 248.0837 0001925 275.2324  84.8308 15.27586267 77751
STARLINK-32898          
1 62998U 25031T   26177.89222303  .00016635  00000+0  61281-3 0  9998
2 62998  42.9982 246.8510 0001271 284.7536  75.3174 15.27572772 77794
STARLINK-32658          
1 62999U 25031U   26177.53701762  .00006621  00000+0  24992-3 0  9993
2 62999  42.9989 248.4831 0001746 279.2709  80.7945 15.27578514 77745
STARLINK-32673          
1 63000U 25031V   26177.88193367  .00018883  00000+0  69405-3 0  9992
2 63000  42.9973 246.7700 0001149 258.7469 101.3253 15.27576099 77793
STARLINK-32437          
1 63001U 25031W   26177.90766439  .00017129  00000+0  63073-3 0  9999
2 63001  43.0004 246.9679 0000678 332.7319  27.3497 15.27569949 77794
STARLINK-11448 [DTC]    
1 63005U 25032A   26177.58094715  .00150041  00000+0  11521-2 0  9990
2 63005  43.0005 258.6179 0002243 267.2935  92.7676 15.70833913 79352
STARLINK-11553 [DTC]    
1 63006U 25032B   26177.63402654  .00199923  00000+0  15132-2 0  9996
2 63006  43.0046 259.0465 0004951 271.0514  88.9786 15.71004866 79341
STARLINK-11526 [DTC]    
1 63007U 25032C   26177.57563800  .00141745  00000+0  10882-2 0  9997
2 63007  43.0025 258.5726 0002525 270.2150  89.8428 15.70864681 79346
STARLINK-11405 [DTC]    
1 63008U 25032D   26177.94225475  .00004697  00000+0  40099-4 0  9991
2 63008  42.9997 257.0501 0000934 259.4301 100.6462 15.70822758 79245
STARLINK-11586 [DTC]    
1 63009U 25032E   26177.92542062  .00202379  00000+0  15401-2 0  9998
2 63009  43.0004 256.9130 0000802 348.2064  11.8784 15.70877755 79393
STARLINK-11574 [DTC]    
1 63010U 25032F   26177.93605593  .00203814  00000+0  15401-2 0  9995
2 63010  43.0002 257.0002 0003573  55.4408 304.6797 15.71039227 79392
STARLINK-11580 [DTC]    
1 63011U 25032G   26177.90948879  .00187238  00000+0  14282-2 0  9997
2 63011  42.9998 256.7828 0000955 278.1063  81.9696 15.70871002 79240
STARLINK-11449 [DTC]    
1 63012U 25032H   26177.92011201  .00205576  00000+0  15545-2 0  9999
2 63012  43.0016 256.8695 0001187 331.9318  28.1486 15.71019974 79395
STARLINK-11577 [DTC]    
1 63013U 25032J   26177.93072706  .00161519  00000+0  12362-2 0  9990
2 63013  42.9981 256.9562 0000863 312.5098  47.5697 15.70873284 79399
STARLINK-11578 [DTC]    
1 63014U 25032K   26177.94665607  .00236718  00000+0  17917-2 0  9995
2 63014  43.0000 257.0815 0000697 317.3791  42.7023 15.70899852 79349
STARLINK-11541 [DTC]    
1 63015U 25032L   26177.58625728  .00178478  00000+0  13661-2 0  9996
2 63015  43.0005 258.6556 0001709 264.4713  95.5960 15.70815895 79357
STARLINK-11545 [DTC]    
1 63016U 25032M   26177.91479736  .00185838  00000+0  14174-2 0  9998
2 63016  42.9998 256.8239 0000861 290.6648  69.4127 15.70876886 79409
