OBJECT_NAME,OBJECT_ID,EPOCH,MEAN_MOTION,ECCENTRICITY,INCLINATION,RA_OF_ASC_NODE,ARG_OF_PERICENTER,MEAN_ANOMALY,EPHEMERIS_TYPE,CLASSIFICATION_TYPE,NORAD_CAT_ID,ELEMENT_SET_NO,REV_AT_EPOCH,BSTAR,MEAN_MOTION_DOT,MEAN_MOTION_DDOT
STARLINK-11582 [DTC],2025-031E,2026-06-26T17:52:34.781664,15.70832669,.00019399,42.9999,64.1348,214.6930,145.3811,0,U,62985,999,7989,.11788622E-2,.153597E-2,0
STARLINK-11571 [DTC],2025-031F,2026-06-26T09:28:53.887296,15.70930151,.0002323,43.0010,65.7977,262.8231,97.2373,0,U,62986,999,7984,.14221E-2,.186906E-2,0
STARLINK-11539 [DTC],2025-031G,2026-06-26T17:44:56.300064,15.70824551,.00025258,42.9996,64.0936,272.2599,87.7979,0,U,62987,999,7989,.14106291E-2,.184518E-2,0
STARLINK-11542 [DTC],2025-031H,2026-06-26T23:28:14.314080,15.70960931,.00020672,43.0017,62.4340,265.8732,94.1899,0,U,62988,999,7990,.19861336E-2,.264E-2,0
STARLINK-11573 [DTC],2025-031J,2026-06-26T18:07:52.312512,15.70933099,.00019464,43.0002,64.2227,251.8817,108.1839,0,U,62989,999,7986,.1146192E-2,.149893E-2,0
STARLINK-11572 [DTC],2025-031K,2026-06-26T22:00:01.999584,15.70860561,.00018019,43.0009,62.8920,258.8136,79.2035,0,U,62990,999,588,-.33811584E-3,-.43646E-3,0
STARLINK-11583 [DTC],2025-031L,2026-06-26T22:50:12.147072,15.70831688,.00012561,43.0017,63.1153,271.3287,88.7436,0,U,62991,999,7993,.20556692E-2,.272045E-2,0
STARLINK-11570 [DTC],2025-031M,2026-06-26T22:57:50.427360,15.70879476,.00016464,43.0026,63.1556,273.3362,86.7317,0,U,62992,999,7991,.97968483E-3,.127414E-2,0
STARLINK-11576 [DTC],2025-031N,2026-06-25T17:35:14.869536,15.70872447,.00014045,43.0007,70.3098,264.2215,95.8493,0,U,62993,999,7972,.13685157E-2,.179231E-2,0
STARLINK-32899,2025-031P,2026-06-26T21:41:27.027456,15.27583188,.00007759,43.0001,246.9408,287.6613,72.4154,0,U,62994,999,7779,.50340142E-3,.13617E-3,0
STARLINK-32819,2025-031Q,2026-06-26T13:02:33.565056,15.27577441,.0001651,42.9980,248.5307,272.5693,87.4970,0,U,62995,999,7774,.52509E-3,.14214E-3,0
STARLINK-32703,2025-031R,2026-06-26T21:34:02.544384,15.27591602,.00020121,42.9997,246.9015,265.6852,94.3770,0,U,62996,999,7779,.75066064E-3,.20459E-3,0
STARLINK-32881,2025-031S,2026-06-26T14:21:54.618048,15.27586267,.0001925,43.0027,248.0837,275.2324,84.8308,0,U,62997,999,7775,.84091E-3,.22955E-3,0
STARLINK-32898,2025-031T,2026-06-26T21:24:48.069792,15.27572772,.00012711,42.9982,246.8510,284.7536,75.3174,0,U,62998,999,7779,.61280953E-3,.16635E-3,0
STARLINK-32658,2025-031U,2026-06-26T12:53:18.322368,15.27578514,.0001746,42.9989,248.4831,279.2709,80.7945,0,U,62999,999,7774,.24992E-3,.6621E-4,0
STARLINK-32673,2025-031V,2026-06-26T21:09:59.069088,15.27576099,.00011493,42.9973,246.7700,258.7469,101.3253,0,U,63000,999,7779,.69405236E-3,.18883E-3,0
STARLINK-32437,2025-031W,2026-06-26T21:47:02.203296,15.27569949,.00006783,43.0004,246.9679,332.7319,27.3497,0,U,63001,999,7779,.63073476E-3,.17129E-3,0
STARLINK-11448 [DTC],2025-032A,2026-06-26T13:56:33.833760,15.70833913,.0002243,43.0005,258.6179,267.2935,92.7676,0,U,63005,999,7935,.11521E-2,.150041E-2,0
STARLINK-11553 [DTC],2025-032B,2026-06-26T15:12:59.893056,15.71004866,.00049515,43.0046,259.0465,271.0514,88.9786,0,U,63006,999,7934,.15132229E-2,.199923E-2,0
STARLINK-11526 [DTC],2025-032C,2026-06-26T13:48:55.123200,15.70864681,.0002525,43.0025,258.5726,270.2150,89.8428,0,U,63007,999,7934,.10882E-2,.141745E-2,0
STARLINK-11405 [DTC],2025-032D,2026-06-26T22:36:50.810400,15.70822758,.00009341,42.9997,257.0501,259.4301,100.6462,0,U,63008,999,7924,.40098912E-4,.4697E-4,0
STARLINK-11586 [DTC],2025-032E,2026-06-26T22:12:36.341568,15.70877755,.00008029,43.0004,256.9130,348.2064,11.8784,0,U,63009,999,7939,.15401395E-2,.202379E-2,0
STARLINK-11574 [DTC],2025-032F,2026-06-26T22:27:55.232352,15.71039227,.00035736,43.0002,257.0002,55.4408,304.6797,0,U,63010,999,7939,.15400509E-2,.203814E-2,0
STARLINK-11580 [DTC],2025-032G,2026-06-26T21:49:39.831456,15.70871002,.00009551,42.9998,256.7828,278.1063,81.9696,0,U,63011,999,7924,.14281939E-2,.187238E-2,0
STARLINK-11449 [DTC],2025-032H,2026-06-26T22:04:57.677664,15.71019974,.00011878,43.0016,256.8695,331.9318,28.1486,0,U,63012,999,7939,.15545192E-2,.205576E-2,0
STARLINK-11577 [DTC],2025-032J,2026-06-26T22:20:14.817984,15.70873284,.00008638,42.9981,256.9562,312.5098,47.5697,0,U,63013,999,7939,.12362157E-2,.161519E-2,0
STARLINK-11578 [DTC],2025-032K,2026-06-26T22:43:11.084448,15.70899852,.00006975,43.0000,257.0815,317.3791,42.7023,0,U,63014,999,7934,.17917183E-2,.236718E-2,0
STARLINK-11541 [DTC],2025-032L,2026-06-26T14:04:12.628992,15.70815895,.0001709,43.0005,258.6556,264.4713,95.5960,0,U,63015,999,7935,.13661E-2,.178478E-2,0
STARLINK-11545 [DTC],2025-032M,2026-06-26T21:57:18.491904,15.70876886,.00008614,42.9998,256.8239,290.6648,69.4127,0,U,63016,999,7940,.14174342E-2,.185838E-2,0
